{"type":"FeatureCollection","features":[{"type":"Feature","properties":{"name":"Oakland","description":"Land footprint of Oakland minus Piedmont: dissolve of oakland_neighborhoods.geojson. Not the legal city limit, which extends into the Bay.","generated_by":"data_pipeline/scripts/build_oakland_boundary.py","generated_at":"2026-09-14T04:44:33Z","closing_radius_m":10.0},"geometry":{"type":"Polygon","coordinates":[[[-122.2831616,37.7959561],[-122.2831584,37.7959612],[-122.2835076,37.7962151],[-122.2854836,37.7963501],[-122.2880086,37.7965691],[-122.2889376,37.7966881],[-122.2888476,37.7974471],[-122.2895386,37.7975891],[-122.2906777,37.7952892],[-122.2914577,37.7956691],[-122.2911887,37.7968061],[-122.2917277,37.7968771],[-122.2922977,37.7955512],[-122.2928977,37.7949812],[-122.2933477,37.7955512],[-122.2939187,37.7953842],[-122.2938587,37.7947682],[-122.2961977,37.7942662],[-122.3058119,37.7943493],[-122.3124209,37.7954503],[-122.319247,37.7968683],[-122.3273431,37.7985513],[-122.3320492,37.8006522],[-122.3316482,37.8011532],[-122.3312722,37.8012112],[-122.3303462,37.8013532],[-122.3273431,37.8014532],[-122.3257401,37.8047541],[-122.3254571,37.806058],[-122.3252391,37.807056],[-122.3273432,37.807556],[-122.3275341,37.807608],[-122.3284442,37.807855],[-122.3297452,37.807118],[-122.3327232,37.8054291],[-122.3374563,37.8038542],[-122.3400603,37.8030542],[-122.3415623,37.8048542],[-122.3334513,37.8104559],[-122.3329502,37.8108569],[-122.3225361,37.8105559],[-122.3219351,37.8114569],[-122.3201331,37.8143578],[-122.3190431,37.8151867],[-122.313422,37.8194606],[-122.31232,37.8193606],[-122.3087159,37.8192606],[-122.3085159,37.8212615],[-122.312521,37.8223625],[-122.315726,37.8219615],[-122.3192311,37.8191606],[-122.3192311,37.8218615],[-122.3282442,37.8206616],[-122.3289882,37.8205686],[-122.3290452,37.8205616],[-122.3292452,37.8216616],[-122.3292452,37.8219616],[-122.3207331,37.8243635],[-122.3173281,37.8280644],[-122.314325,37.8295653],[-122.310518,37.8280643],[-122.3092169,37.8274643],[-122.2998028,37.8283653],[-122.2998028,37.8307662],[-122.2953977,37.8295652],[-122.2978008,37.8327671],[-122.2940777,37.8316241],[-122.2936947,37.8312662],[-122.2934947,37.8310662],[-122.2930157,37.8309702],[-122.2919507,37.8307572],[-122.2914917,37.8306662],[-122.2903906,37.8303662],[-122.2890886,37.8300652],[-122.2884996,37.8299182],[-122.2878876,37.8297652],[-122.2865856,37.8294652],[-122.2858846,37.8291652],[-122.2853836,37.8290652],[-122.2828805,37.8283652],[-122.2824795,37.8282652],[-122.2815785,37.8280642],[-122.2812775,37.8281642],[-122.2800755,37.8277642],[-122.279102,37.8275697],[-122.2791105,37.8276002],[-122.2786095,37.8275002],[-122.2788105,37.8280012],[-122.2791105,37.8289011],[-122.2791105,37.8292011],[-122.2789105,37.8299021],[-122.2787105,37.8307021],[-122.2783095,37.8316021],[-122.2779095,37.832503],[-122.2776085,37.833303],[-122.2774084,37.833904],[-122.2771084,37.834703],[-122.2769074,37.835303],[-122.2766074,37.8360039],[-122.2763064,37.8365039],[-122.2761504,37.8369749],[-122.2768074,37.8370039],[-122.2790155,37.8372779],[-122.2793115,37.8373289],[-122.2795325,37.8373649],[-122.2800005,37.8374449],[-122.2807865,37.8372879],[-122.2812315,37.8371999],[-122.2815595,37.8371349],[-122.2822155,37.8370039],[-122.2823475,37.8374769],[-122.2823785,37.8375859],[-122.2842186,37.8372039],[-122.2847186,37.8372039],[-122.2850186,37.8370039],[-122.2852186,37.8376049],[-122.2855196,37.8383049],[-122.2861206,37.8401059],[-122.2863206,37.8406059],[-122.2868216,37.8423068],[-122.2872216,37.8437078],[-122.2874226,37.8444078],[-122.2877226,37.8452087],[-122.2880226,37.8461087],[-122.2883236,37.8467087],[-122.2884236,37.8471097],[-122.2885236,37.8477097],[-122.2888246,37.8487096],[-122.2892246,37.8498106],[-122.2894256,37.8501106],[-122.2866216,37.8508106],[-122.2864606,37.8503706],[-122.2842185,37.8509116],[-122.2839175,37.8505106],[-122.2837175,37.8496106],[-122.2837175,37.8493106],[-122.2828155,37.8495106],[-122.2827155,37.8490106],[-122.2825745,37.8485516],[-122.2823155,37.8477096],[-122.2822155,37.8473096],[-122.2817145,37.8474096],[-122.2799115,37.8477096],[-122.2781094,37.8479096],[-122.2780094,37.8479266],[-122.2769074,37.8481096],[-122.2767064,37.8476096],[-122.2766074,37.8467086],[-122.2765074,37.8464086],[-122.2760064,37.8465086],[-122.2738034,37.8468086],[-122.2729024,37.8469086],[-122.2719003,37.8470096],[-122.2716003,37.8470096],[-122.2695983,37.8474096],[-122.2695983,37.8477096],[-122.2700983,37.8485096],[-122.2700983,37.8489096],[-122.2695983,37.8491105],[-122.2688963,37.8491105],[-122.2689973,37.8495105],[-122.2691973,37.8503105],[-122.2692973,37.8508105],[-122.2693973,37.8514115],[-122.2694973,37.8520115],[-122.2684963,37.8522115],[-122.2675943,37.8522114],[-122.2666933,37.8524114],[-122.2623872,37.8528124],[-122.2608852,37.8529124],[-122.2589831,37.8532124],[-122.2578811,37.8534124],[-122.2566801,37.8534124],[-122.2555781,37.8536124],[-122.254577,37.8537124],[-122.253976,37.8538123],[-122.253575,37.8516114],[-122.253675,37.8513114],[-122.253074,37.8515114],[-122.251572,37.8515114],[-122.2494689,37.8518114],[-122.2484669,37.8518114],[-122.2471659,37.8519114],[-122.2460638,37.8520114],[-122.2452628,37.8520114],[-122.2448618,37.8520114],[-122.2439608,37.8520114],[-122.2418577,37.8523113],[-122.2418577,37.8522913],[-122.2412857,37.8522913],[-122.2408747,37.8523163],[-122.2363785,37.8525923],[-122.2359785,37.8525923],[-122.2341449,37.852694],[-122.2342474,37.8538123],[-122.2342994,37.8542583],[-122.2344474,37.8555132],[-122.2345474,37.8565132],[-122.2346474,37.8572142],[-122.2348485,37.8576142],[-122.2376525,37.8574142],[-122.2385526,37.8575142],[-122.2391536,37.8574142],[-122.2401556,37.8574142],[-122.2416347,37.8575002],[-122.2419577,37.8577142],[-122.2422037,37.8578852],[-122.2424587,37.8580142],[-122.2433597,37.8590152],[-122.2438607,37.8588152],[-122.2437607,37.8593152],[-122.2437807,37.8594641],[-122.2439607,37.8608161],[-122.2439607,37.8612161],[-122.2441607,37.8629171],[-122.2441917,37.863411],[-122.2442237,37.863931],[-122.2442887,37.864972],[-122.2443617,37.866117],[-122.2442607,37.866918],[-122.2445617,37.8677179],[-122.2444617,37.8681179],[-122.2446617,37.8689189],[-122.2446617,37.8695379],[-122.2446617,37.8696189],[-122.2446747,37.8699508],[-122.2447617,37.8721208],[-122.2448617,37.8728208],[-122.2449157,37.8733258],[-122.2451627,37.8756217],[-122.2452627,37.8768227],[-122.2455627,37.8794236],[-122.2456637,37.8806246],[-122.2456637,37.8811246],[-122.2457627,37.8821255],[-122.2458637,37.8830255],[-122.2459637,37.8845265],[-122.2459637,37.8849265],[-122.2454627,37.8845265],[-122.2440607,37.8834255],[-122.2419576,37.8821255],[-122.2413566,37.8823255],[-122.2398546,37.8831255],[-122.2386535,37.8835255],[-122.2367505,37.8830255],[-122.2356494,37.8827255],[-122.2343474,37.8824255],[-122.2309423,37.8815245],[-122.2257351,37.8794235],[-122.2238331,37.8785236],[-122.221328,37.8755216],[-122.2173229,37.8719197],[-122.2162208,37.8690188],[-122.2170209,37.8686188],[-122.2177229,37.8681178],[-122.2191249,37.8674178],[-122.221429,37.8652169],[-122.220327,37.8646169],[-122.2194329,37.8637509],[-122.2137178,37.8582141],[-122.2135168,37.8581141],[-122.2131168,37.8578141],[-122.2122147,37.8569141],[-122.2122437,37.8568941],[-122.2119117,37.8565621],[-122.2115437,37.8561931],[-122.2107417,37.8551931],[-122.2107737,37.8551131],[-122.2109417,37.8546931],[-122.2098227,37.8534222],[-122.2087386,37.8521912],[-122.2081616,37.8520992],[-122.2062356,37.8517912],[-122.2037315,37.8513912],[-122.2031635,37.8506812],[-122.2013284,37.8483893],[-122.2002273,37.8473893],[-122.1988253,37.8464883],[-122.1972223,37.8452883],[-122.1967222,37.8449884],[-122.1952202,37.8437874],[-122.1952202,37.8429874],[-122.1957212,37.8424864],[-122.1953482,37.8423324],[-122.1951852,37.8421694],[-122.1950332,37.8420504],[-122.1947892,37.8419864],[-122.1945772,37.8418914],[-122.1944552,37.8417304],[-122.1943632,37.8416024],[-122.1943032,37.8414734],[-122.1942592,37.8413894],[-122.1940502,37.8413194],[-122.1939682,37.8412864],[-122.1938872,37.8411884],[-122.1938571,37.8411234],[-122.1938572,37.8409944],[-122.1938632,37.8409185],[-122.1917151,37.8399855],[-122.1915141,37.8397855],[-122.189612,37.8381845],[-122.188858,37.8378085],[-122.18881,37.8377845],[-122.1868069,37.8374845],[-122.1852049,37.8371845],[-122.1846039,37.8359835],[-122.1845038,37.8355836],[-122.1841038,37.8340826],[-122.1843038,37.8335826],[-122.1846678,37.8331357],[-122.1856059,37.8319817],[-122.1859059,37.8313817],[-122.1865069,37.8305807],[-122.1870079,37.8296807],[-122.1871079,37.8288797],[-122.1870079,37.8274798],[-122.1864069,37.8267788],[-122.1858059,37.8256788],[-122.1863069,37.8243779],[-122.1866069,37.8236779],[-122.1862559,37.8222729],[-122.1859059,37.820876],[-122.1813998,37.819676],[-122.1768936,37.816375],[-122.1749906,37.8144741],[-122.1745905,37.8118722],[-122.1743895,37.8105722],[-122.1754916,37.8079703],[-122.1763926,37.8069703],[-122.1781957,37.8039684],[-122.1784332,37.8037309],[-122.1774296,37.8031294],[-122.1765276,37.8038294],[-122.1752256,37.8033294],[-122.1756266,37.8024294],[-122.1724515,37.8008755],[-122.1717274,37.8005215],[-122.1707194,37.8000275],[-122.1686163,37.7993275],[-122.1686163,37.8006284],[-122.1684163,37.8009284],[-122.1685163,37.8014284],[-122.1693174,37.8013284],[-122.1698184,37.8019284],[-122.1703184,37.8025294],[-122.1705194,37.8049303],[-122.1669533,37.8058013],[-122.1666143,37.8057303],[-122.1665103,37.8057033],[-122.1647112,37.8052303],[-122.1644102,37.8045303],[-122.1646672,37.8044983],[-122.1660123,37.8043303],[-122.1655122,37.8040293],[-122.1655022,37.8038993],[-122.1654922,37.8035273],[-122.1654922,37.8031084],[-122.1655232,37.8027094],[-122.1650972,37.8023884],[-122.1651992,37.8021814],[-122.1648842,37.8019244],[-122.1648642,37.8018684],[-122.1648642,37.8017814],[-122.1649582,37.8013994],[-122.1649162,37.8013354],[-122.1643102,37.8004274],[-122.1644102,37.7994275],[-122.1645112,37.7988275],[-122.1630092,37.7990275],[-122.1631092,37.7997274],[-122.1626081,37.8001274],[-122.1618001,37.8000344],[-122.1600051,37.7998274],[-122.158503,37.7982265],[-122.159203,37.7975265],[-122.158503,37.7970265],[-122.1578,37.7974265],[-122.1567989,37.7969265],[-122.1567989,37.7965255],[-122.1513918,37.7964255],[-122.1510908,37.7924236],[-122.1461836,37.7923236],[-122.1454266,37.7915996],[-122.1437805,37.7900226],[-122.1427795,37.7908236],[-122.1415774,37.7899226],[-122.1434805,37.7871217],[-122.1399121,37.7833464],[-122.1398774,37.7833718],[-122.1349312,37.7781399],[-122.1342302,37.7784399],[-122.1335291,37.7776399],[-122.1341302,37.7772399],[-122.1322271,37.775138],[-122.1309391,37.773236],[-122.1260499,37.7676141],[-122.1221447,37.7604113],[-122.1204437,37.7575514],[-122.1204884,37.7575409],[-122.1181756,37.7537855],[-122.1157715,37.7495846],[-122.1156725,37.7485766],[-122.1136684,37.7496846],[-122.1119654,37.7468837],[-122.1142684,37.738981],[-122.1146714,37.7366741],[-122.1155725,37.7364741],[-122.1165745,37.7346731],[-122.1176755,37.7349731],[-122.1197766,37.7333752],[-122.1216796,37.7319753],[-122.1228817,37.7330752],[-122.1223807,37.7307743],[-122.1232817,37.7292734],[-122.1228817,37.7284734],[-122.1237817,37.7280734],[-122.1241837,37.7279734],[-122.1269878,37.7283734],[-122.1307099,37.7301894],[-122.131294,37.7304744],[-122.131094,37.7309743],[-122.130794,37.7317743],[-122.1305039,37.7322953],[-122.1301449,37.7326143],[-122.1302929,37.7326753],[-122.1301649,37.7330663],[-122.1302559,37.7334542],[-122.1303559,37.7335582],[-122.131787,37.7331993],[-122.1339991,37.7339752],[-122.1341771,37.7338862],[-122.1346011,37.7336753],[-122.1367032,37.7313743],[-122.1376052,37.7308744],[-122.1383062,37.7306744],[-122.1384062,37.7310744],[-122.1379044,37.7312747],[-122.1386072,37.7330793],[-122.1389752,37.7332253],[-122.1391233,37.7342112],[-122.1395083,37.7339803],[-122.1398213,37.7339803],[-122.1400103,37.7339803],[-122.1403863,37.7354842],[-122.1404103,37.7355802],[-122.1410113,37.7363812],[-122.1417124,37.7371812],[-122.1421134,37.7373811],[-122.1424134,37.7375811],[-122.1433154,37.7383821],[-122.1436474,37.7387381],[-122.1447165,37.7398821],[-122.1453185,37.740682],[-122.1459195,37.741383],[-122.1463885,37.742263],[-122.1465195,37.742082],[-122.1470206,37.741383],[-122.1472146,37.741058],[-122.1473216,37.740882],[-122.1476226,37.740782],[-122.1474206,37.7405821],[-122.1481226,37.7402821],[-122.1484846,37.7402301],[-122.1502257,37.7399821],[-122.1511267,37.7396821],[-122.1520277,37.7392821],[-122.1533298,37.7388821],[-122.1552328,37.7382812],[-122.1569349,37.7379812],[-122.1582379,37.7374812],[-122.1583379,37.7374812],[-122.159841,37.7370812],[-122.160241,37.7369812],[-122.161745,37.7363813],[-122.1640481,37.7353803],[-122.1651502,37.7368812],[-122.165334,37.7371584],[-122.1661972,37.7367753],[-122.1714054,37.7343734],[-122.1699023,37.7318724],[-122.1699023,37.7311725],[-122.1701023,37.7311725],[-122.1704033,37.7310725],[-122.1736074,37.7307715],[-122.1743084,37.7309725],[-122.1749095,37.7309725],[-122.1745084,37.7306715],[-122.1740084,37.7302715],[-122.1706273,37.7277156],[-122.1703033,37.7274706],[-122.1705033,37.7274706],[-122.1708793,37.7275246],[-122.1710463,37.7275406],[-122.1715023,37.7274666],[-122.1717353,37.7273126],[-122.1719283,37.7270816],[-122.1720903,37.7268746],[-122.1722973,37.7266116],[-122.1727533,37.7263946],[-122.1736694,37.7263156],[-122.1739634,37.7262137],[-122.1741254,37.7260597],[-122.1744894,37.7257527],[-122.1748084,37.7254177],[-122.1749094,37.7253697],[-122.1757104,37.7248687],[-122.1768045,37.7248327],[-122.1786765,37.7247707],[-122.1791276,37.7257007],[-122.1800866,37.7256217],[-122.1803026,37.7256037],[-122.1804806,37.7254617],[-122.1805246,37.7254257],[-122.1814586,37.7246777],[-122.1817186,37.7246687],[-122.1824197,37.7246687],[-122.1824677,37.7246917],[-122.1828207,37.7248687],[-122.1843227,37.7254697],[-122.1898299,37.7282706],[-122.190531,37.7271707],[-122.190655,37.7271247],[-122.190711,37.7271057],[-122.191694,37.7263887],[-122.19206,37.7267697],[-122.192242,37.7269607],[-122.192736,37.7267697],[-122.1960401,37.7255697],[-122.1964411,37.7262697],[-122.1971752,37.7260207],[-122.1967541,37.7250018],[-122.1961401,37.7234688],[-122.1958301,37.7231888],[-122.1942,37.7217149],[-122.194037,37.7215679],[-122.193035,37.7208669],[-122.1891298,37.717566],[-122.1898298,37.717066],[-122.1930349,37.7161661],[-122.193668,37.717234],[-122.194813,37.716904],[-122.193968,37.7154631],[-122.1970421,37.7149651],[-122.1988441,37.7131642],[-122.2097594,37.7104633],[-122.2111615,37.7087623],[-122.2104594,37.7013586],[-122.2133644,37.6987577],[-122.2422056,37.7194681],[-122.2457117,37.7200681],[-122.251419,37.724269],[-122.251578,37.724433],[-122.251715,37.724693],[-122.2515,37.7252809],[-122.25092,37.7258989],[-122.250752,37.7260439],[-122.250645,37.7261129],[-122.250538,37.7261739],[-122.250431,37.7262269],[-122.250325,37.7262809],[-122.250201,37.7263269],[-122.250079,37.7263649],[-122.249917,37.7263699],[-122.2462118,37.7256699],[-122.2368984,37.7190671],[-122.2360974,37.7186671],[-122.2286322,37.7263188],[-122.2283862,37.7265698],[-122.2280672,37.7269078],[-122.2263192,37.7265938],[-122.2266452,37.7304137],[-122.2261772,37.7310577],[-122.2257922,37.7314637],[-122.2256612,37.7317566],[-122.2255702,37.7319426],[-122.2251563,37.7448082],[-122.2251643,37.7449602],[-122.2254833,37.7450022],[-122.2265534,37.7451442],[-122.2266724,37.7451602],[-122.2263844,37.7469802],[-122.2253833,37.7469802],[-122.2254833,37.7456791],[-122.2219782,37.7461792],[-122.2145669,37.7399763],[-122.2134648,37.7379754],[-122.2100787,37.7309936],[-122.2093856,37.7306356],[-122.2092246,37.7309466],[-122.2081676,37.7305256],[-122.2119418,37.7380764],[-122.2117408,37.7390514],[-122.2116498,37.7397223],[-122.2120308,37.7403263],[-122.2131929,37.7411503],[-122.2177721,37.7487811],[-122.2174711,37.7488371],[-122.2168761,37.7485621],[-122.215547,37.7477061],[-122.2138789,37.7467451],[-122.2127189,37.7458901],[-122.2116948,37.7450352],[-122.2111138,37.7437372],[-122.2111758,37.7427992],[-122.2104268,37.7423412],[-122.2102578,37.7422262],[-122.2100598,37.7419773],[-122.2094597,37.7412773],[-122.2083267,37.7420112],[-122.213936,37.749091],[-122.213828,37.749262],[-122.213611,37.749517],[-122.2133959,37.749944],[-122.2130729,37.750328],[-122.2107529,37.7517349],[-122.208228,37.752443],[-122.2082578,37.7525373],[-122.2096568,37.7523659],[-122.2109719,37.7519469],[-122.2117269,37.75146],[-122.2129849,37.750974],[-122.2130979,37.751504],[-122.214077,37.751592],[-122.215026,37.7564018],[-122.215679,37.7576588],[-122.2168961,37.7592238],[-122.215201,37.7608057],[-122.2145614,37.7608864],[-122.214582,37.7609097],[-122.2130809,37.7605097],[-122.2130809,37.7592029],[-122.2130649,37.7591848],[-122.2133649,37.7589848],[-122.214138,37.7571501],[-122.2141112,37.7571385],[-122.2127639,37.7584848],[-122.2126594,37.7585893],[-122.2126789,37.7586088],[-122.2113779,37.7590087],[-122.2125799,37.7612097],[-122.214966,37.7612107],[-122.215685,37.7614097],[-122.2177881,37.7605097],[-122.2179501,37.7604557],[-122.2198912,37.7598088],[-122.2223942,37.7586088],[-122.2237233,37.7626567],[-122.2243863,37.764678],[-122.2296394,37.7693205],[-122.2301055,37.7694135],[-122.2311745,37.7696805],[-122.2313075,37.7697135],[-122.2326176,37.7703685],[-122.2327096,37.7704145],[-122.2362147,37.7719155],[-122.2362027,37.7719275],[-122.2380898,37.7733155],[-122.2396918,37.7745164],[-122.2403928,37.7750164],[-122.2438979,37.7791183],[-122.2438609,37.779123],[-122.2438609,37.7806333],[-122.2431599,37.7813333],[-122.2439609,37.7824343],[-122.2432599,37.7826342],[-122.2433599,37.7836352],[-122.244261,37.7833352],[-122.247266,37.7861362],[-122.247367,37.7862362],[-122.2476671,37.7866362],[-122.2480681,37.7866362],[-122.2486691,37.7864362],[-122.2537752,37.7881371],[-122.2556322,37.7874512],[-122.2590833,37.7862362],[-122.2619873,37.7872372],[-122.2592833,37.7895381],[-122.2598843,37.7900381],[-122.2611023,37.7895222],[-122.2631883,37.7886372],[-122.2646903,37.7884372],[-122.2635893,37.7893382],[-122.2648913,37.7891382],[-122.2646903,37.7899382],[-122.2655913,37.7897382],[-122.2644903,37.7910391],[-122.2635614,37.7913484],[-122.2647673,37.7916491],[-122.2688734,37.7901492],[-122.2685734,37.7906492],[-122.2712764,37.7909492],[-122.2736794,37.7924501],[-122.2742805,37.7934501],[-122.2747815,37.7930501],[-122.2753825,37.7933501],[-122.2756825,37.7936501],[-122.2766835,37.7940511],[-122.2779065,37.7947091],[-122.2801305,37.7957431],[-122.2806745,37.7957181],[-122.2814805,37.7959561],[-122.2813305,37.7962401],[-122.2822686,37.7965831],[-122.2831364,37.7959738],[-122.2831486,37.7959541],[-122.2831564,37.7959598],[-122.2831616,37.7959561]],[[-122.2332265,37.8166453],[-122.2319445,37.8163503],[-122.2292394,37.8157493],[-122.2252672,37.8148563],[-122.2252632,37.8148743],[-122.2230602,37.8143743],[-122.2226591,37.8142743],[-122.2212581,37.8139743],[-122.2200561,37.8136733],[-122.217692,37.8131343],[-122.2165499,37.8128733],[-122.2151479,37.8127733],[-122.2149479,37.8129733],[-122.2140469,37.8137733],[-122.2125448,37.8170752],[-122.2101407,37.8188761],[-122.2114428,37.8195771],[-122.2122438,37.8200771],[-122.2144469,37.8211771],[-122.2153489,37.8216781],[-122.2165499,37.822478],[-122.2167499,37.822678],[-122.217352,37.822878],[-122.218402,37.823679],[-122.2211571,37.825779],[-122.2224591,37.8272799],[-122.2227591,37.8276799],[-122.2238612,37.8293799],[-122.2244622,37.8304809],[-122.2249632,37.8311808],[-122.2258122,37.8317688],[-122.2262642,37.8320818],[-122.2271663,37.8324818],[-122.2280673,37.8331828],[-122.2322724,37.8318819],[-122.2343275,37.8315039],[-122.2355795,37.8312739],[-122.2360786,37.8311809],[-122.2369796,37.8308809],[-122.2389827,37.8306809],[-122.2430888,37.830081],[-122.2433888,37.8302809],[-122.2441898,37.829481],[-122.2448909,37.82878],[-122.2451919,37.828481],[-122.2454209,37.828318],[-122.2458929,37.827981],[-122.2462819,37.827777],[-122.247995,37.8268801],[-122.248696,37.8256801],[-122.248996,37.8251791],[-122.250199,37.8239791],[-122.249599,37.8236792],[-122.25,37.8231782],[-122.248981,37.8225422],[-122.247995,37.8218782],[-122.247942,37.8218632],[-122.2461409,37.8202622],[-122.2453389,37.8198622],[-122.2447389,37.8194622],[-122.2439378,37.8190623],[-122.2432368,37.8188613],[-122.2421348,37.8185613],[-122.2403317,37.8181613],[-122.2392307,37.8178613],[-122.2374286,37.8174613],[-122.2365276,37.8173613],[-122.2351246,37.8171613],[-122.2338235,37.8168613],[-122.2332225,37.8166603],[-122.2332265,37.8166453]]]}}]}